NORAD_CAT_ID,OBJECT_NAME,OBJECT_TYPE,EPOCH,MEAN_MOTION,ECCENTRICITY,INCLINATION,RA_OF_ASC_NODE,ARG_OF_PERICENTER,MEAN_ANOMALY,BSTAR,MEAN_MOTION_DOT,MEAN_MOTION_DDOT,TLE_LINE0,TLE_LINE1,TLE_LINE2,SEMIMAJOR_AXIS,PERIOD,APOGEE,PERIGEE,DECAYED
53736.0,STARLINK-4652,PAYLOAD,2023-04-30 15:09:48,15.08824518,0.0001417,53.2156,261.2681,113.262,246.8521,0.00055629,8.573e-05,0.0,0 STARLINK-4652,1 53736U 22107AN  23120.63180875  .00008573  00000-0  55629-3 0  9995,2 53736  53.2156 261.2681 0001417 113.2620 246.8521 15.08824518 36337,6917.928,95.439,540.773,538.812,0.0
53736.0,STARLINK-4652,PAYLOAD,2023-04-30 18:20:33,15.08844372,0.0001217,53.214,260.6735,91.825,268.2881,0.00010225,1.34e-05,0.0,0 STARLINK-4652,1 53736U 22107AN  23120.76427747  .00001340  00000-0  10225-3 0  9999,2 53736  53.2140 260.6735 0001217  91.8250 268.2881 15.08844372 36350,6917.867,95.437,540.574,538.89,0.0
53736.0,STARLINK-4652,PAYLOAD,2023-05-01 13:25:11,15.08832762,0.0001206,53.2139,257.1045,98.7131,261.3998,1.4882e-05,-5.1e-07,0.0,0 STARLINK-4652,1 53736U 22107AN  23121.55916593 -.00000051  00000-0  14882-4 0  9992,2 53736  53.2139 257.1045 0001206  98.7131 261.3998 15.08832762 37102,6917.903,95.438,540.602,538.933,0.0
53736.0,STARLINK-4652,PAYLOAD,2023-05-01 15:00:34,15.0883718,0.0001105,53.2137,256.8063,119.2177,240.8925,1.862e-05,9e-08,0.0,0 STARLINK-4652,1 53736U 22107AN  23121.62540224  .00000009  00000-0  18620-4 0  9990,2 53736  53.2137 256.8063 0001105 119.2177 240.8925 15.08837180 36484,6917.889,95.438,540.518,538.99,0.0
53736.0,STARLINK-4652,PAYLOAD,2023-05-01 16:35:57,15.08838759,0.0001029,53.2139,256.5087,119.1507,240.9588,5.7104e-05,6.21e-06,0.0,0 STARLINK-4652,1 53736U 22107AN  23121.69164160  .00000621  00000-0  57104-4 0  9998,2 53736  53.2139 256.5087 0001029 119.1507 240.9588 15.08838759 37121,6917.884,95.438,540.461,539.037,0.0
53736.0,STARLINK-4652,PAYLOAD,2023-05-02 13:15:57,15.08854747,0.0001076,53.2138,252.6438,121.5602,238.5496,0.00025303,3.743e-05,0.0,0 STARLINK-4652,1 53736U 22107AN  23122.55275300  .00003743  00000-0  25303-3 0  9996,2 53736  53.2138 252.6438 0001076 121.5602 238.5496 15.08854747 36622,6917.835,95.437,540.445,538.956,0.0
53736.0,STARLINK-4652,PAYLOAD,2023-05-02 14:51:20,15.0885848,0.000102,53.2142,252.3473,94.745,265.3659,0.0003196,4.805e-05,0.0,0 STARLINK-4652,1 53736U 22107AN  23122.61899261  .00004805  00000-0  31960-3 0  9997,2 53736  53.2142 252.3473 0001020  94.7450 265.3659 15.08858480 37262,6917.824,95.436,540.395,538.983,0.0
53736.0,STARLINK-4652,PAYLOAD,2023-05-02 18:02:07,15.08863403,0.0001122,53.2135,251.752,97.3966,262.7153,0.00052732,8.12e-05,0.0,0 STARLINK-4652,1 53736U 22107AN  23122.75147192  .00008120  00000-0  52732-3 0  9995,2 53736  53.2135 251.7520 0001122  97.3966 262.7153 15.08863403 37287,6917.809,95.436,540.45,538.898,0.0
53736.0,STARLINK-4652,PAYLOAD,2023-05-03 01:59:03,15.08843311,0.0001225,53.2151,250.2649,86.6157,273.4975,0.00017441,2.489e-05,0.0,0 STARLINK-4652,1 53736U 22107AN  23123.08267900  .00002489  00000-0  17441-3 0  9992,2 53736  53.2151 250.2649 0001225  86.6157 273.4975 15.08843311 36701,6917.87,95.437,540.583,538.888,0.0
53736.0,STARLINK-4652,PAYLOAD,2023-05-03 13:06:45,15.08834909,0.000134,53.2136,248.1833,90.2824,269.8321,-6.709e-05,-1.355e-05,0.0,0 STARLINK-4652,1 53736U 22107AN  23123.54636286 -.00001355  00000-0 -67090-4 0  9999,2 53736  53.2136 248.1833 0001340  90.2824 269.8321 15.08834909 36779,6917.896,95.438,540.688,538.834,0.0
53736.0,STARLINK-4652,PAYLOAD,2023-05-03 16:17:32,15.0883453,0.0001102,53.2143,247.5879,100.7224,259.3893,-4.7741e-05,-1.047e-05,0.0,0 STARLINK-4652,1 53736U 22107AN  23123.67884374 -.00001047  00000-0 -47741-4 0  9995,2 53736  53.2143 247.5879 0001102 100.7224 259.3893 15.08834530 37428,6917.897,95.438,540.524,539.0,0.0
53736.0,STARLINK-4652,PAYLOAD,2023-05-04 12:57:32,15.08847459,0.0001204,53.2145,243.7223,91.8559,268.2572,0.00020758,3.018e-05,0.0,0 STARLINK-4652,1 53736U 22107AN  23124.53996085  .00003018  00000-0  20758-3 0  9990,2 53736  53.2145 243.7223 0001204  91.8559 268.2572 15.08847459 36926,6917.858,95.437,540.555,538.89,0.0
53736.0,STARLINK-4652,PAYLOAD,2023-05-04 14:32:55,15.08849471,0.0001184,53.215,243.4254,90.7903,269.3225,0.00024546,3.622e-05,0.0,0 STARLINK-4652,1 53736U 22107AN  23124.60620012  .00003622  00000-0  24546-3 0  9992,2 53736  53.2150 243.4254 0001184  90.7903 269.3225 15.08849471 37565,6917.851,95.437,540.536,538.897,0.0
53736.0,STARLINK-4652,PAYLOAD,2023-05-05 08:02:10,15.08838608,0.0001403,53.2157,240.1582,70.9098,289.2046,0.00021275,3.099e-05,0.0,0 STARLINK-4652,1 53736U 22107AN  23125.33484754  .00003099  00000-0  21275-3 0  9998,2 53736  53.2157 240.1582 0001403  70.9098 289.2046 15.08838608 37044,6917.885,95.438,540.72,538.779,0.0
53736.0,STARLINK-4652,PAYLOAD,2023-05-05 14:23:43,15.08840482,0.0001025,53.2145,238.9649,79.111,280.9997,0.0002016,2.922e-05,0.0,0 STARLINK-4652,1 53736U 22107AN  23125.59980583  .00002922  00000-0  20160-3 0  9993,2 53736  53.2145 238.9649 0001025  79.1110 280.9997 15.08840482 37716,6917.879,95.438,540.453,539.035,0.0
53736.0,STARLINK-4652,PAYLOAD,2023-05-06 12:39:07,15.08842361,0.0001264,53.2157,234.8054,71.6393,288.4737,6.4955e-05,7.46e-06,0.0,0 STARLINK-4652,1 53736U 22107AN  23126.52716687  .00000746  00000-0  64955-4 0  9992,2 53736  53.2157 234.8054 0001264  71.6393 288.4737 15.08842361 37857,6917.873,95.437,540.613,538.864,0.0
53736.0,STARLINK-4652,PAYLOAD,2023-05-06 23:46:48,15.08849902,0.0001193,53.2154,232.7229,76.7519,283.3606,0.00014418,2.008e-05,0.0,0 STARLINK-4652,1 53736U 22107AN  23126.99084135  .00002008  00000-0  14418-3 0  9990,2 53736  53.2154 232.7229 0001193  76.7519 283.3606 15.08849902 37297,6917.85,95.437,540.54,538.89,0.0
53736.0,STARLINK-4652,PAYLOAD,2023-05-07 12:29:53,15.08847399,0.0001072,53.2142,230.3445,79.2494,280.8618,0.00017142,2.442e-05,0.0,0 STARLINK-4652,1 53736U 22107AN  23127.52076119  .00002442  00000-0  17142-3 0  9992,2 53736  53.2142 230.3445 0001072  79.2494 280.8618 15.08847399 38007,6917.858,95.437,540.464,538.981,0.0
53736.0,STARLINK-4652,PAYLOAD,2023-05-07 23:37:35,15.08846645,9.81e-05,53.2139,228.2625,88.8627,271.2478,0.00012208,1.656e-05,0.0,0 STARLINK-4652,1 53736U 22107AN  23127.98444005  .00001656  00000-0  12208-3 0  9999,2 53736  53.2139 228.2625 0000981  88.8627 271.2478 15.08846645 37449,6917.86,95.437,540.404,539.046,0.0
53736.0,STARLINK-4652,PAYLOAD,2023-05-08 12:20:41,15.08833728,0.0001277,53.2142,225.8823,85.87,274.2438,-8.7189e-05,-1.675e-05,0.0,0 STARLINK-4652,1 53736U 22107AN  23128.51436846 -.00001675  00000-0 -87189-4 0  9997,2 53736  53.2142 225.8823 0001277  85.8700 274.2438 15.08833728 37520,6917.9,95.438,540.648,538.881,0.0
53736.0,STARLINK-4652,PAYLOAD,2023-05-08 13:56:04,15.08836225,0.0001318,53.2144,225.5847,84.2951,275.8191,-5.2177e-05,-1.118e-05,0.0,0 STARLINK-4652,1 53736U 22107AN  23128.58060746 -.00001118  00000-0 -52177-4 0  9997,2 53736  53.2144 225.5847 0001318  84.2951 275.8191 15.08836225 38161,6917.892,95.438,540.669,538.845,0.0
53736.0,STARLINK-4652,PAYLOAD,2023-05-09 13:46:51,15.08841929,0.0001378,53.2142,221.1252,82.5961,277.5187,0.00017865,2.557e-05,0.0,0 STARLINK-4652,1 53736U 22107AN  23129.57420792  .00002557  00000-0  17865-3 0  9998,2 53736  53.2142 221.1252 0001378  82.5961 277.5187 15.08841929 38317,6917.874,95.437,540.693,538.786,0.0
53736.0,STARLINK-4652,PAYLOAD,2023-05-10 12:02:15,15.08839733,0.0001416,53.2146,216.9605,91.3598,268.7556,0.00018312,2.628e-05,0.0,0 STARLINK-4652,1 53736U 22107AN  23130.50157280  .00002628  00000-0  18312-3 0  9999,2 53736  53.2146 216.9605 0001416  91.3598 268.7556 15.08839733 38459,6917.881,95.438,540.726,538.767,0.0
53736.0,STARLINK-4652,PAYLOAD,2023-05-11 10:17:39,15.08844849,0.0001451,53.2146,212.7963,105.466,254.6492,0.0003695,5.598e-05,0.0,0 STARLINK-4652,1 53736U 22107AN  23131.42893129  .00005598  00000-0  36950-3 0  9997,2 53736  53.2146 212.7963 0001451 105.4660 254.6492 15.08844849 38598,6917.866,95.437,540.734,538.727,0.0
53736.0,STARLINK-4652,PAYLOAD,2023-05-11 11:53:02,15.08851984,0.0001378,53.2151,212.4989,101.8619,258.2527,0.00016334,2.313e-05,0.0,0 STARLINK-4652,1 53736U 22107AN  23131.49516708  .00002313  00000-0  16334-3 0  9995,2 53736  53.2151 212.4989 0001378 101.8619 258.2527 15.08851984 38600,6917.844,95.437,540.662,538.755,0.0
53736.0,STARLINK-4652,PAYLOAD,2023-05-12 08:33:03,15.08841023,0.0001534,53.2143,208.6353,108.6122,251.5037,0.0001169,1.573e-05,0.0,0 STARLINK-4652,1 53736U 22107AN  23132.35629298  .00001573  00000-0  11690-3 0  9997,2 53736  53.2143 208.6353 0001534 108.6122 251.5037 15.08841023 38101,6917.877,95.437,540.803,538.681,0.0
53736.0,STARLINK-4652,PAYLOAD,2023-05-13 11:34:36,15.08849285,0.0001241,53.2145,203.5776,94.8925,265.2209,0.00012414,1.689e-05,0.0,0 STARLINK-4652,1 53736U 22107AN  23133.48236791  .00001689  00000-0  12414-3 0  9997,2 53736  53.2145 203.5776 0001241  94.8925 265.2209 15.08849285 38907,6917.852,95.437,540.576,538.859,0.0
53736.0,STARLINK-4652,PAYLOAD,2023-05-13 13:09:59,15.08851141,0.0001319,53.2147,203.28,103.8866,256.2273,9.507e-05,1.226e-05,0.0,0 STARLINK-4652,1 53736U 22107AN  23133.54860645  .00001226  00000-0  95070-4 0  9992,2 53736  53.2147 203.2800 0001319 103.8866 256.2273 15.08851141 38281,6917.846,95.437,540.624,538.799,0.0
53736.0,STARLINK-4652,PAYLOAD,2023-05-13 21:06:55,15.08839888,0.0001645,53.2156,201.792,71.4468,288.6703,-2.1247e-06,-3.22e-06,0.0,0 STARLINK-4652,1 53736U 22107AN  23133.87981183 -.00000322  00000-0 -21247-5 0  9993,2 53736  53.2156 201.7920 0001645  71.4468 288.6703 15.08839888 38963,6917.881,95.438,540.884,538.608,0.0
53736.0,STARLINK-4652,PAYLOAD,2023-05-14 13:00:47,15.08832659,0.0001392,53.2151,198.82,108.2525,251.8618,-3.7179e-05,-8.79e-06,0.0,0 STARLINK-4652,1 53736U 22107AN  23134.54221715 -.00000879  00000-0 -37179-4 0  9993,2 53736  53.2151 198.8200 0001392 108.2525 251.8618 15.08832659 39065,6917.903,95.438,540.731,538.805,0.0
